{"type": "FeatureCollection", "features": [ {"type": "Feature", "properties": {"norad_id": 66678, "name": "TRANSPORTER-15N", "group": "last-30-days", "lat": 81.18859580963327, "lon": -49.55923739680087, "alt_km": 505.14334305050215, "timestamp": "2025-12-27T12:55:13.194089+00:00", "meta": {"OBJECT_NAME": "TRANSPORTER-15N", "OBJECT_ID": "2025-276N", "EPOCH": "2025-12-27T06:10:22.918080", "MEAN_MOTION": 15.17111712, "ECCENTRICITY": 0.00054891, "INCLINATION": 97.4382, "RA_OF_ASC_NODE": 72.7264, "ARG_OF_PERICENTER": 35.4763, "MEAN_ANOMALY": 324.6835, "EPHEMERIS_TYPE": 0, "CLASSIFICATION_TYPE": "U", "NORAD_CAT_ID": 66678, "ELEMENT_SET_NO": 999, "REV_AT_EPOCH": 432, "BSTAR": 0.0039792468, "MEAN_MOTION_DOT": 0.00079637, "MEAN_MOTION_DDOT": 0}, "tle": {"line1": "1 66678U 25276N   25361.25720970  .00079637  00000+0  39792-2 0  9997", "line2": "2 66678  97.4382  72.7264 0005489  35.4763 324.6835 15.17111712  4327"}}, "geometry": {"type": "Point", "coordinates": [-49.55923739680087, 81.18859580963327]}}, {"type": "Feature", "properties": {"norad_id": 66679, "name": "TRANSPORTER-15P", "group": "last-30-days", "lat": 80.28924277624796, "lon": 23.250355134384204, "alt_km": 511.27545854467735, "timestamp": "2025-12-27T12:55:13.194101+00:00", "meta": {"OBJECT_NAME": "TRANSPORTER-15P", "OBJECT_ID": "2025-276P", "EPOCH": "2025-12-27T06:13:07.532544", "MEAN_MOTION": 15.1673063, "ECCENTRICITY": 0.000478, "INCLINATION": 97.4358, "RA_OF_ASC_NODE": 72.7236, "ARG_OF_PERICENTER": 237.8831, "MEAN_ANOMALY": 122.1939, "EPHEMERIS_TYPE": 0, "CLASSIFICATION_TYPE": "U", "NORAD_CAT_ID": 66679, "ELEMENT_SET_NO": 999, "REV_AT_EPOCH": 432, "BSTAR": 0.00020717308, "MEAN_MOTION_DOT": 3.997e-05, "MEAN_MOTION_DDOT": 0}, "tle": {"line1": "1 66679U 25276P   25361.25911496  .00003997  00000+0  20717-3 0  9997", "line2": "2 66679  97.4358  72.7236 0004780 237.8831 122.1939 15.16730630  4328"}}, "geometry": {"type": "Point", "coordinates": [23.250355134384204, 80.28924277624796]}}, {"type": "Feature", "properties": {"norad_id": 66680, "name": "TRANSPORTER-15Q", "group": "last-30-days", "lat": 81.44947538965681, "lon": -46.614604041872425, "alt_km": 509.9758849047821, "timestamp": "2025-12-27T12:55:13.194111+00:00", "meta": {"OBJECT_NAME": "TRANSPORTER-15Q", "OBJECT_ID": "2025-276Q", "EPOCH": "2025-12-27T06:10:24.603744", "MEAN_MOTION": 15.16903734, "ECCENTRICITY": 0.00051355, "INCLINATION": 97.4406, "RA_OF_ASC_NODE": 72.7419, "ARG_OF_PERICENTER": 224.2218, "MEAN_ANOMALY": 135.8605, "EPHEMERIS_TYPE": 0, "CLASSIFICATION_TYPE": "U", "NORAD_CAT_ID": 66680, "ELEMENT_SET_NO": 999, "REV_AT_EPOCH": 432, "BSTAR": 0.00081494237, "MEAN_MOTION_DOT": 0.0001602, "MEAN_MOTION_DDOT": 0}, "tle": {"line1": "1 66680U 25276Q   25361.25722921  .00016020  00000+0  81494-3 0  9992", "line2": "2 66680  97.4406  72.7419 0005135 224.2218 135.8605 15.16903734  4329"}}, "geometry": {"type": "Point", "coordinates": [-46.614604041872425, 81.44947538965681]}}, {"type": "Feature", "properties": {"norad_id": 66681, "name": "TRANSPORTER-15R", "group": "last-30-days", "lat": 46.42812767573398, "lon": -99.10534764172675, "alt_km": 510.87230389612705, "timestamp": "2025-12-27T12:55:13.194122+00:00", "meta": {"OBJECT_NAME": "TRANSPORTER-15R", "OBJECT_ID": "2025-276R", "EPOCH": "2025-12-27T06:00:22.038912", "MEAN_MOTION": 15.17606309, "ECCENTRICITY": 0.00049237, "INCLINATION": 97.4329, "RA_OF_ASC_NODE": 72.7244, "ARG_OF_PERICENTER": 256.7032, "MEAN_ANOMALY": 103.3653, "EPHEMERIS_TYPE": 0, "CLASSIFICATION_TYPE": "U", "NORAD_CAT_ID": 66681, "ELEMENT_SET_NO": 999, "REV_AT_EPOCH": 432, "BSTAR": 0.00088634229, "MEAN_MOTION_DOT": 0.00017787, "MEAN_MOTION_DDOT": 0}, "tle": {"line1": "1 66681U 25276R   25361.25025508  .00017787  00000+0  88634-3 0  9994", "line2": "2 66681  97.4329  72.7244 0004923 256.7032 103.3653 15.17606309  4320"}}, "geometry": {"type": "Point", "coordinates": [-99.10534764172675, 46.42812767573398]}}, {"type": "Feature", "properties": {"norad_id": 66682, "name": "TRANSPORTER-15S", "group": "last-30-days", "lat": 78.49013858014226, "lon": 33.143689193848104, "alt_km": 512.0993656648543, "timestamp": "2025-12-27T12:55:13.194131+00:00", "meta": {"OBJECT_NAME": "TRANSPORTER-15S", "OBJECT_ID": "2025-276S", "EPOCH": "2025-12-26T23:51:45.551808", "MEAN_MOTION": 15.13006162, "ECCENTRICITY": 0.00165644, "INCLINATION": 97.4342, "RA_OF_ASC_NODE": 72.4972, "ARG_OF_PERICENTER": 119.3207, "MEAN_ANOMALY": 240.9682, "EPHEMERIS_TYPE": 0, "CLASSIFICATION_TYPE": "U", "NORAD_CAT_ID": 66682, "ELEMENT_SET_NO": 999, "REV_AT_EPOCH": 428, "BSTAR": -0.028771681, "MEAN_MOTION_DOT": -0.00477853, "MEAN_MOTION_DDOT": 0}, "tle": {"line1": "1 66682U 25276S   25360.99427722 -.00477853  00000+0 -28772-1 0  9990", "line2": "2 66682  97.4342  72.4972 0016564 119.3207 240.9682 15.13006162  4285"}}, "geometry": {"type": "Point", "coordinates": [33.143689193848104, 78.49013858014226]}}, {"type": "Feature", "properties": {"norad_id": 66683, "name": "TRANSPORTER-15T", "group": "last-30-days", "lat": 70.4799234523661, "lon": -85.31891421346819, "alt_km": 509.17013939588196, "timestamp": "2025-12-27T12:55:13.194142+00:00", "meta": {"OBJECT_NAME": "TRANSPORTER-15T", "OBJECT_ID": "2025-276T", "EPOCH": "2025-12-27T06:06:48.048192", "MEAN_MOTION": 15.17077888, "ECCENTRICITY": 0.00048889, "INCLINATION": 97.4443, "RA_OF_ASC_NODE": 72.7591, "ARG_OF_PERICENTER": 221.897, "MEAN_ANOMALY": 138.189, "EPHEMERIS_TYPE": 0, "CLASSIFICATION_TYPE": "U", "NORAD_CAT_ID": 66683, "ELEMENT_SET_NO": 999, "REV_AT_EPOCH": 432, "BSTAR": 0.00045976744, "MEAN_MOTION_DOT": 9.045e-05, "MEAN_MOTION_DDOT": 0}, "tle": {"line1": "1 66683U 25276T   25361.25472278  .00009045  00000+0  45977-3 0  9997", "line2": "2 66683  97.4443  72.7591 0004888 221.8970 138.1890 15.17077888  4321"}}, "geometry": {"type": "Point", "coordinates": [-85.31891421346819, 70.4799234523661]}}, {"type": "Feature", "properties": {"norad_id": 66684, "name": "TRANSPORTER-15U", "group": "last-30-days", "lat": 48.69441958664142, "lon": -98.38333787481594, "alt_km": 509.2187109364213, "timestamp": "2025-12-27T12:55:13.194177+00:00", "meta": {"OBJECT_NAME": "TRANSPORTER-15U", "OBJECT_ID": "2025-276U", "EPOCH": "2025-12-27T06:00:55.874880", "MEAN_MOTION": 15.17430928, "ECCENTRICITY": 0.00047035, "INCLINATION": 97.4467, "RA_OF_ASC_NODE": 72.7733, "ARG_OF_PERICENTER": 221.1081, "MEAN_ANOMALY": 138.9798, "EPHEMERIS_TYPE": 0, "CLASSIFICATION_TYPE": "U", "NORAD_CAT_ID": 66684, "ELEMENT_SET_NO": 999, "REV_AT_EPOCH": 432, "BSTAR": 0.00065642839, "MEAN_MOTION_DOT": 0.00013081, "MEAN_MOTION_DDOT": 0}, "tle": {"line1": "1 66684U 25276U   25361.25064670  .00013081  00000+0  65643-3 0  9998", "line2": "2 66684  97.4467  72.7733 0004703 221.1081 138.9798 15.17430928  4321"}}, "geometry": {"type": "Point", "coordinates": [-98.38333787481594, 48.69441958664142]}}, {"type": "Feature", "properties": {"norad_id": 66685, "name": "TRANSPORTER-15V", "group": "last-30-days", "lat": 26.62167969425405, "lon": -103.19200217833708, "alt_km": 492.84149648752464, "timestamp": "2025-12-27T12:55:13.194189+00:00", "meta": {"OBJECT_NAME": "TRANSPORTER-15V", "OBJECT_ID": "2025-276V", "EPOCH": "2025-12-27T02:47:35.884320", "MEAN_MOTION": 15.21953501, "ECCENTRICITY": 0.00085593, "INCLINATION": 97.4444, "RA_OF_ASC_NODE": 72.6316, "ARG_OF_PERICENTER": 36.5472, "MEAN_ANOMALY": 323.6347, "EPHEMERIS_TYPE": 0, "CLASSIFICATION_TYPE": "U", "NORAD_CAT_ID": 66685, "ELEMENT_SET_NO": 999, "REV_AT_EPOCH": 430, "BSTAR": 0.15371794, "MEAN_MOTION_DOT": 0.03971994, "MEAN_MOTION_DDOT": 0}, "tle": {"line1": "1 66685U 25276V   25361.11638755  .03971994  00000+0  15372+0 0  9994", "line2": "2 66685  97.4444  72.6316 0008559  36.5472 323.6347 15.21953501  4301"}}, "geometry": {"type": "Point", "coordinates": [-103.19200217833708, 26.62167969425405]}}, {"type": "Feature", "properties": {"norad_id": 66686, "name": "TRANSPORTER-15W", "group": "last-30-days", "lat": 66.49543781236773, "lon": -89.46103939424411, "alt_km": 509.17097944297984, "timestamp": "2025-12-27T12:55:13.194200+00:00", "meta": {"OBJECT_NAME": "TRANSPORTER-15W", "OBJECT_ID": "2025-276W", "EPOCH": "2025-12-27T06:05:40.821216", "MEAN_MOTION": 15.1707514, "ECCENTRICITY": 0.00042925, "INCLINATION": 97.4447, "RA_OF_ASC_NODE": 72.762, "ARG_OF_PERICENTER": 222.3283, "MEAN_ANOMALY": 137.762, "EPHEMERIS_TYPE": 0, "CLASSIFICATION_TYPE": "U", "NORAD_CAT_ID": 66686, "ELEMENT_SET_NO": 999, "REV_AT_EPOCH": 432, "BSTAR": 0.00063835583, "MEAN_MOTION_DOT": 0.00012589, "MEAN_MOTION_DDOT": 0}, "tle": {"line1": "1 66686U 25276W   25361.25394469  .00012589  00000+0  63836-3 0  9996", "line2": "2 66686  97.4447  72.7620 0004292 222.3283 137.7620 15.17075140  4328"}}, "geometry": {"type": "Point", "coordinates": [-89.46103939424411, 66.49543781236773]}}, {"type": "Feature", "properties": {"norad_id": 66687, "name": "TRANSPORTER-15X", "group": "last-30-days", "lat": 76.3336293543756, "lon": 40.50019432697177, "alt_km": 503.9272182488676, "timestamp": "2025-12-27T12:55:13.194214+00:00", "meta": {"OBJECT_NAME": "TRANSPORTER-15X", "OBJECT_ID": "2025-276X", "EPOCH": "2025-12-27T04:39:35.070624", "MEAN_MOTION": 15.16821541, "ECCENTRICITY": 0.00080866, "INCLINATION": 97.4384, "RA_OF_ASC_NODE": 72.6637, "ARG_OF_PERICENTER": 40.1556, "MEAN_ANOMALY": 320.0274, "EPHEMERIS_TYPE": 0, "CLASSIFICATION_TYPE": "U", "NORAD_CAT_ID": 66687, "ELEMENT_SET_NO": 999, "REV_AT_EPOCH": 431, "BSTAR": 0.00078014896, "MEAN_MOTION_DOT": 0.00015303, "MEAN_MOTION_DDOT": 0}, "tle": {"line1": "1 66687U 25276X   25361.19415591  .00015303  00000+0  78015-3 0  9992", "line2": "2 66687  97.4384  72.6637 0008086  40.1556 320.0274 15.16821541  4314"}}, "geometry": {"type": "Point", "coordinates": [40.50019432697177, 76.3336293543756]}}]}